[{"OBJECT_NAME":"ONEWEB-0012","OBJECT_ID":"2019-010A","EPOCH":"2026-06-11T05:59:09.807648","MEAN_MOTION":13.16593914,"ECCENTRICITY":0.0002057,"INCLINATION":87.9099,"RA_OF_ASC_NODE":229.9645,"ARG_OF_PERICENTER":86.5451,"MEAN_ANOMALY":273.5915,"EPHEMERIS_TYPE":0,"CLASSIFICATION_TYPE":"U","NORAD_CAT_ID":44057,"ELEMENT_SET_NO":999,"REV_AT_EPOCH":35078,"BSTAR":5.1683000000000006e-05,"MEAN_MOTION_DOT":3.3e-07,"MEAN_MOTION_DDOT":0.0},{"OBJECT_NAME":"ONEWEB-0010","OBJECT_ID":"2019-010B","EPOCH":"2026-06-11T04:46:12.098496","MEAN_MOTION":13.16594931,"ECCENTRICITY":0.0001781,"INCLINATION":87.9102,"RA_OF_ASC_NODE":229.9699,"ARG_OF_PERICENTER":105.6041,"MEAN_ANOMALY":254.5287,"EPHEMERIS_TYPE":0,"CLASSIFICATION_TYPE":"U","NORAD_CAT_ID":44058,"ELEMENT_SET_NO":999,"REV_AT_EPOCH":35082,"BSTAR":2.9116e-05,"MEAN_MOTION_DOT":2.4e-07,"MEAN_MOTION_DDOT":0.0},{"OBJECT_NAME":"ONEWEB-0008","OBJECT_ID":"2019-010C","EPOCH":"2026-06-11T05:22:40.871424","MEAN_MOTION":13.16595866,"ECCENTRICITY":0.0002319,"INCLINATION":87.9096,"RA_OF_ASC_NODE":229.9607,"ARG_OF_PERICENTER":100.6975,"MEAN_ANOMALY":259.4418,"EPHEMERIS_TYPE":0,"CLASSIFICATION_TYPE":"U","NORAD_CAT_ID":44059,"ELEMENT_SET_NO":999,"REV_AT_EPOCH":35094,"BSTAR":5.7677000000000004e-05,"MEAN_MOTION_DOT":3.5e-07,"MEAN_MOTION_DDOT":0.0},{"OBJECT_NAME":"ONEWEB-0007","OBJECT_ID":"2019-010D","EPOCH":"2026-06-11T00:37:51.290112","MEAN_MOTION":13.15548096,"ECCENTRICITY":0.0001664,"INCLINATION":87.8999,"RA_OF_ASC_NODE":260.4485,"ARG_OF_PERICENTER":96.3584,"MEAN_ANOMALY":263.7736,"EPHEMERIS_TYPE":0,"CLASSIFICATION_TYPE":"U","NORAD_CAT_ID":44060,"ELEMENT_SET_NO":999,"REV_AT_EPOCH":35056,"BSTAR":0.00030021999999999997,"MEAN_MOTION_DOT":1.26e-06,"MEAN_MOTION_DDOT":0.0},{"OBJECT_NAME":"ONEWEB-0006","OBJECT_ID":"2019-010E","EPOCH":"2026-06-11T04:22:35.350176","MEAN_MOTION":13.15548578,"ECCENTRICITY":0.0001814,"INCLINATION":87.901,"RA_OF_ASC_NODE":260.3811,"ARG_OF_PERICENTER":102.6745,"MEAN_ANOMALY":257.4589,"EPHEMERIS_TYPE":0,"CLASSIFICATION_TYPE":"U","NORAD_CAT_ID":44061,"ELEMENT_SET_NO":999,"REV_AT_EPOCH":35063,"BSTAR":0.00043447,"MEAN_MOTION_DOT":1.76e-06,"MEAN_MOTION_DDOT":0.0},{"OBJECT_NAME":"ONEWEB-0011","OBJECT_ID":"2019-010F","EPOCH":"2026-06-11T05:26:28.009248","MEAN_MOTION":13.15550779,"ECCENTRICITY":0.0002015,"INCLINATION":87.9011,"RA_OF_ASC_NODE":260.3817,"ARG_OF_PERICENTER":106.6363,"MEAN_ANOMALY":253.4989,"EPHEMERIS_TYPE":0,"CLASSIFICATION_TYPE":"U","NORAD_CAT_ID":44062,"ELEMENT_SET_NO":999,"REV_AT_EPOCH":35063,"BSTAR":-0.00035242000000000004,"MEAN_MOTION_DOT":-1.2e-06,"MEAN_MOTION_DDOT":0.0},{"OBJECT_NAME":"ONEWEB-0013","OBJECT_ID":"2020-008A","EPOCH":"2026-06-11T05:02:24.927936","MEAN_MOTION":13.09461625,"ECCENTRICITY":0.0002496,"INCLINATION":87.8531,"RA_OF_ASC_NODE":54.031,"ARG_OF_PERICENTER":58.5089,"MEAN_ANOMALY":301.6282,"EPHEMERIS_TYPE":0,"CLASSIFICATION_TYPE":"U","NORAD_CAT_ID":45131,"ELEMENT_SET_NO":999,"REV_AT_EPOCH":30528,"BSTAR":0.00062295,"MEAN_MOTION_DOT":2.27e-06,"MEAN_MOTION_DDOT":0.0},{"OBJECT_NAME":"ONEWEB-0017","OBJECT_ID":"2020-008B","EPOCH":"2026-06-11T04:43:01.977888","MEAN_MOTION":13.10369374,"ECCENTRICITY":0.0001623,"INCLINATION":87.8836,"RA_OF_ASC_NODE":37.462,"ARG_OF_PERICENTER":86.6386,"MEAN_ANOMALY":273.4927,"EPHEMERIS_TYPE":0,"CLASSIFICATION_TYPE":"U","NORAD_CAT_ID":45132,"ELEMENT_SET_NO":999,"REV_AT_EPOCH":30716,"BSTAR":0.00059261,"MEAN_MOTION_DOT":2.2e-06,"MEAN_MOTION_DDOT":0.0},{"OBJECT_NAME":"ONEWEB-0020","OBJECT_ID":"2020-008C","EPOCH":"2026-06-11T02:10:21.029952","MEAN_MOTION":13.10181111,"ECCENTRICITY":0.0002539,"INCLINATION":87.8849,"RA_OF_ASC_NODE":37.4818,"ARG_OF_PERICENTER":39.3679,"MEAN_ANOMALY":320.7632,"EPHEMERIS_TYPE":0,"CLASSIFICATION_TYPE":"U","NORAD_CAT_ID":45133,"ELEMENT_SET_NO":999,"REV_AT_EPOCH":30754,"BSTAR":-0.07276500000000001,"MEAN_MOTION_DOT":-0.00025249,"MEAN_MOTION_DDOT":0.0},{"OBJECT_NAME":"ONEWEB-0021","OBJECT_ID":"2020-008D","EPOCH":"2026-06-11T04:21:31.995648","MEAN_MOTION":13.10372909,"ECCENTRICITY":0.0001768,"INCLINATION":87.8837,"RA_OF_ASC_NODE":37.4794,"ARG_OF_PERICENTER":78.6988,"MEAN_ANOMALY":281.4338,"EPHEMERIS_TYPE":0,"CLASSIFICATION_TYPE":"U","NORAD_CAT_ID":45134,"ELEMENT_SET_NO":999,"REV_AT_EPOCH":30786,"BSTAR":0.0019639,"MEAN_MOTION_DOT":6.98e-06,"MEAN_MOTION_DDOT":0.0},{"OBJECT_NAME":"ONEWEB-0023","OBJECT_ID":"2020-008F","EPOCH":"2026-06-11T04:37:04.002816","MEAN_MOTION":13.10369951,"ECCENTRICITY":0.0001934,"INCLINATION":87.884,"RA_OF_ASC_NODE":37.4589,"ARG_OF_PERICENTER":79.7122,"MEAN_ANOMALY":280.4224,"EPHEMERIS_TYPE":0,"CLASSIFICATION_TYPE":"U","NORAD_CAT_ID":45136,"ELEMENT_SET_NO":999,"REV_AT_EPOCH":30729,"BSTAR":0.0011194,"MEAN_MOTION_DOT":4.03e-06,"MEAN_MOTION_DDOT":0.0},{"OBJECT_NAME":"ONEWEB-0024","OBJECT_ID":"2020-008G","EPOCH":"2026-06-11T03:57:49.132800","MEAN_MOTION":13.10375681,"ECCENTRICITY":0.0001772,"INCLINATION":87.8851,"RA_OF_ASC_NODE":37.4569,"ARG_OF_PERICENTER":81.8671,"MEAN_ANOMALY":278.2657,"EPHEMERIS_TYPE":0,"CLASSIFICATION_TYPE":"U","NORAD_CAT_ID":45137,"ELEMENT_SET_NO":999,"REV_AT_EPOCH":30745,"BSTAR":0.00071531,"MEAN_MOTION_DOT":2.62e-06,"MEAN_MOTION_DDOT":0.0},{"OBJECT_NAME":"ONEWEB-0025","OBJECT_ID":"2020-008H","EPOCH":"2026-06-11T03:57:25.308864","MEAN_MOTION":13.10375544,"ECCENTRICITY":0.0002163,"INCLINATION":87.8855,"RA_OF_ASC_NODE":37.4463,"ARG_OF_PERICENTER":92.9532,"MEAN_ANOMALY":267.1843,"EPHEMERIS_TYPE":0,"CLASSIFICATION_TYPE":"U","NORAD_CAT_ID":45138,"ELEMENT_SET_NO":999,"REV_AT_EPOCH":30778,"BSTAR":0.00067514,"MEAN_MOTION_DOT":2.48e-06,"MEAN_MOTION_DDOT":0.0},{"OBJECT_NAME":"ONEWEB-0026","OBJECT_ID":"2020-008J","EPOCH":"2026-06-11T03:08:48.306624","MEAN_MOTION":13.11419222,"ECCENTRICITY":0.000176,"INCLINATION":87.8891,"RA_OF_ASC_NODE":22.2741,"ARG_OF_PERICENTER":89.1756,"MEAN_ANOMALY":270.9574,"EPHEMERIS_TYPE":0,"CLASSIFICATION_TYPE":"U","NORAD_CAT_ID":45139,"ELEMENT_SET_NO":999,"REV_AT_EPOCH":31031,"BSTAR":0.0012482,"MEAN_MOTION_DOT":4.55e-06,"MEAN_MOTION_DDOT":0.0},{"OBJECT_NAME":"ONEWEB-0028","OBJECT_ID":"2020-008K","EPOCH":"2026-06-11T02:33:23.108544","MEAN_MOTION":13.11425253,"ECCENTRICITY":0.0002078,"INCLINATION":87.889,"RA_OF_ASC_NODE":22.2877,"ARG_OF_PERICENTER":69.1194,"MEAN_ANOMALY":291.0156,"EPHEMERIS_TYPE":0,"CLASSIFICATION_TYPE":"U","NORAD_CAT_ID":45140,"ELEMENT_SET_NO":999,"REV_AT_EPOCH":30782,"BSTAR":-0.0012135,"MEAN_MOTION_DOT":-4.17e-06,"MEAN_MOTION_DDOT":0.0},{"OBJECT_NAME":"ONEWEB-0032","OBJECT_ID":"2020-008L","EPOCH":"2026-06-11T04:45:37.291392","MEAN_MOTION":13.10368978,"ECCENTRICITY":0.0002129,"INCLINATION":87.8835,"RA_OF_ASC_NODE":37.4632,"ARG_OF_PERICENTER":71.5517,"MEAN_ANOMALY":288.5841,"EPHEMERIS_TYPE":0,"CLASSIFICATION_TYPE":"U","NORAD_CAT_ID":45141,"ELEMENT_SET_NO":999,"REV_AT_EPOCH":30751,"BSTAR":0.00027775,"MEAN_MOTION_DOT":1.1e-06,"MEAN_MOTION_DDOT":0.0}]