1 44057U 19010A 26162.24941907 .00000033 00000+0 51683-4 0 9996 
2 44057 87.9099 229.9645 0002057 86.5451 273.5915 13.16593914350781 
1 44058U 19010B 26162.19875114 .00000024 00000+0 29116-4 0 9993 
2 44058 87.9102 229.9699 0001781 105.6041 254.5287 13.16594931350823 
1 44059U 19010C 26162.22408416 .00000035 00000+0 57677-4 0 9990 
2 44059 87.9096 229.9607 0002319 100.6975 259.4418 13.16595866350945 
1 44060U 19010D 26162.02628808 .00000126 00000+0 30022-3 0 9994 
2 44060 87.8999 260.4485 0001664 96.3584 263.7736 13.15548096350562 
1 44061U 19010E 26162.18235359 .00000176 00000+0 43447-3 0 9997 
2 44061 87.9010 260.3811 0001814 102.6745 257.4589 13.15548578350636 
1 44062U 19010F 26162.22671307 -.00000120 00000+0 -35242-3 0 9995 
2 44062 87.9011 260.3817 0002015 106.6363 253.4989 13.15550779350634 
1 45131U 20008A 26162.21001074 .00000227 00000+0 62295-3 0 9993 
2 45131 87.8531 54.0310 0002496 58.5089 301.6282 13.09461625305284 
1 45132U 20008B 26162.19655067 .00000220 00000+0 59261-3 0 9990 
2 45132 87.8836 37.4620 0001623 86.6386 273.4927 13.10369374307166 
1 45133U 20008C 26162.09052118 -.00025249 00000+0 -72765-1 0 9990 
2 45133 87.8849 37.4818 0002539 39.3679 320.7632 13.10181111307549 
1 45134U 20008D 26162.18162032 .00000698 00000+0 19639-2 0 9999 
2 45134 87.8837 37.4794 0001768 78.6988 281.4338 13.10372909307860 
1 45136U 20008F 26162.19240744 .00000403 00000+0 11194-2 0 9991 
2 45136 87.8840 37.4589 0001934 79.7122 280.4224 13.10369951307298 
1 45137U 20008G 26162.16515200 .00000262 00000+0 71531-3 0 9996 
2 45137 87.8851 37.4569 0001772 81.8671 278.2657 13.10375681307452 
1 45138U 20008H 26162.16487626 .00000248 00000+0 67514-3 0 9997 
2 45138 87.8855 37.4463 0002163 92.9532 267.1843 13.10375544307782 
1 45139U 20008J 26162.13111466 .00000455 00000+0 12482-2 0 9994 
2 45139 87.8891 22.2741 0001760 89.1756 270.9574 13.11419222310311 
1 45140U 20008K 26162.10651746 -.00000417 00000+0 -12135-2 0 9998 
2 45140 87.8890 22.2877 0002078 69.1194 291.0156 13.11425253307822 
1 45141U 20008L 26162.19834828 .00000110 00000+0 27775-3 0 9997 
2 45141 87.8835 37.4632 0002129 71.5517 288.5841 13.10368978307519 
